ONEWEB-0389             
1 50469U 21132A   25019.26270998  .00000079  00000+0  16912-3 0  9990
2 50469  87.9096 108.2621 0001822  91.8924 268.2416 13.17647050150404
ONEWEB-0390             
1 50470U 21132B   25019.26440831  .00000073  00000+0  15551-3 0  9999
2 50470  87.9095 108.2688 0002078 103.9228 256.2134 13.17648330150400
ONEWEB-0391             
1 50471U 21132C   25019.26608505 -.00000356  00000+0 -94925-3 0  9992
2 50471  87.9104 108.2692 0002238  80.2680 279.8704 13.17649071150401
ONEWEB-0392             
1 50472U 21132D   25019.60021434  .00000089  00000+0  19633-3 0  9995
2 50472  87.9086 108.1722 0001844  90.2383 269.8960 13.17648721150489
ONEWEB-0393             
1 50473U 21132E   25019.26963061  .00000048  00000+0  89476-4 0  9997
2 50473  87.9099 108.2362 0001794  97.6229 262.5106 13.17652476150438
ONEWEB-0394             
1 50474U 21132F   25019.56571298  .00000081  00000+0  17177-3 0  9993
2 50474  87.9074  77.6224 0001808  96.4723 263.6615 13.18684871153907
ONEWEB-0395             
1 50475U 21132G   25019.30828542 -.00000447  00000+0 -12965-2 0  9990
2 50475  87.8908 123.5124 0001907  97.9525 262.1820 13.11416648148363
ONEWEB-0396             
1 50476U 21132H   25019.55937583  .00000036  00000+0  57394-4 0  9993
2 50476  87.9080  77.6309 0001778  95.3670 264.7665 13.18684071153948
ONEWEB-0397             
1 50477U 21132J   25019.57361700  .00000070  00000+0  14583-3 0  9998
2 50477  87.9080  77.6296 0001640  98.3656 261.7662 13.18685176153928
ONEWEB-0398             
1 50478U 21132K   25019.35238362  .00000626  00000+0  17304-2 0  9992
2 50478  87.8902 123.4746 0002162 106.4279 253.7087 13.11416474148262
ONEWEB-0399             
1 50479U 21132L   25019.33881446  .00000431  00000+0  11790-2 0  9995
2 50479  87.8904 123.4977 0001363  97.5317 262.5965 13.11418109148255
ONEWEB-0400             
1 50480U 21132M   25019.55305530  .00000010  00000+0 -83967-5 0  9998
2 50480  87.9078  77.6292 0002088 101.8948 258.2418 13.18684099153918
ONEWEB-0401             
1 50481U 21132N   25019.59573386  .00000006  00000+0 -18721-4 0  9999
2 50481  87.9073  77.6149 0001592 102.3912 257.7398 13.18683229153927
ONEWEB-0402             
1 50482U 21132P   25019.56095531 -.00000244  00000+0 -65172-3 0  9994
2 50482  87.9076  77.6192 0001227 108.8414 251.2851 13.18685332153944
ONEWEB-0403             
1 50483U 21132Q   25019.58467653  .00000046  00000+0  83635-4 0  9998
2 50483  87.9076  77.6265 0001885  96.3661 263.7686 13.18684340153909
ONEWEB-0404             
1 50484U 21132R   25019.32013663 -.00000299  00000+0 -87969-3 0  9994
2 50484  87.8915 123.4906 0001677  92.5430 267.5890 13.11415044148341
ONEWEB-0405             
1 50485U 21132S   25019.60048026  .00000050  00000+0  92841-4 0  9996
2 50485  87.9076  77.6133 0001483  99.3487 260.7813 13.18684042154301
ONEWEB-0406             
1 50486U 21132T   25019.58941821  .00000020  00000+0  18358-4 0  9997
2 50486  87.9079  77.6319 0002353  89.9639 270.1763 13.18683912153934
ONEWEB-0407             
1 50487U 21132U   25019.58309075  .00000022  00000+0  23926-4 0  9996
2 50487  87.9074  77.6250 0001670  98.3060 261.8262 13.18683612153878
ONEWEB-0409             
1 50488U 21132V   25019.31845611 -.00000339  00000+0 -99103-3 0  9991
2 50488  87.8905 123.4687 0001892  98.2108 261.9234 13.11417070148233
ONEWEB-0412             
1 50489U 21132W   25019.57202127  .00000070  00000+0  14563-3 0  9996
2 50489  87.9081  77.6372 0001415 104.0854 256.0436 13.18683649153965
ONEWEB-0413             
1 50490U 21132X   25019.57676296  .00000061  00000+0  12255-3 0  9996
2 50490  87.9079  77.6483 0001537 107.3739 252.7561 13.18683315153906
ONEWEB-0414             
1 50491U 21132Y   25019.56253911  .00000036  00000+0  57825-4 0  9996
2 50491  87.9076  77.6209 0001580  96.3604 263.7709 13.18683675153934
ONEWEB-0417             
1 50492U 21132Z   25019.57045789  .00000072  00000+0  15053-3 0  9996
2 50492  87.9082  77.6374 0001934  93.9461 266.1892 13.18684956153913
ONEWEB-0418             
1 50493U 21132AA  25019.57979450  .00000028  00000+0  37830-4 0  9997
2 50493  87.9077  77.6304 0002022  88.8107 271.3257 13.18687124153979
ONEWEB-0419             
1 50494U 21132AB  25019.59731207 -.00000365  00000+0 -95906-3 0  9999
2 50494  87.9075  77.6364 0002174  98.2587 261.8792 13.18685623153890
ONEWEB-0420             
1 50495U 21132AC  25019.56412571  .00000060  00000+0  11886-3 0  9992
2 50495  87.9075  77.6515 0001762 109.4701 250.6622 13.18684123153885
ONEWEB-0421             
1 50496U 21132AD  25019.55780792  .00000005  00000+0 -21172-4 0  9995
2 50496  87.9082  77.6352 0001489  97.2686 262.8615 13.18684750153923
ONEWEB-0424             
1 50497U 21132AE  25019.59256885 -.00000030  00000+0 -10787-3 0  9999
2 50497  87.9078  77.6241 0002357 100.7226 259.4172 13.18687691153951
ONEWEB-0426             
1 50498U 21132AF  25019.17525719  .00003771  00000+0  95279-2 0  9990
2 50498  87.9096  77.7200 0002341  83.8012 276.3386 13.18684044153847
ONEWEB-0427             
1 50499U 21132AG  25019.59098824 -.00000282  00000+0 -74870-3 0  9990
2 50499  87.9074  77.6133 0001955  94.6791 265.4564 13.18685485153928
ONEWEB-0429             
1 50500U 21132AH  25019.57835131  .00000031  00000+0  46269-4 0  9993
2 50500  87.9081  77.6352 0001807 105.8144 254.3187 13.18683617153894
ONEWEB-0430             
1 50501U 21132AJ  25019.56728086  .00000041  00000+0  71466-4 0  9991
2 50501  87.9079  77.6347 0002166 106.4031 253.7339 13.18683787153932
ONEWEB-0432             
1 50502U 21132AK  25019.21951690  .00000034  00000+0  54419-4 0  9994
2 50502  87.9076  77.6948 0002748  87.9393 272.2054 13.18684396153844
ONEWEB-0440             
1 50503U 21132AL  25019.58626054  .00000037  00000+0  60224-4 0  9992
2 50503  87.9081  77.6167 0001425 105.3657 254.7633 13.18684912153889
ONEWEB-0450             
1 50504U 21132AM  25019.58006035 -.00000228  00000+0 -61235-3 0  9990
2 50504  87.9079  77.6464 0001947 111.8155 248.3184 13.18685372153916
ONEWEB-0410             
1 51622U 22012A   25019.28127127  .00000110  00000+0  25001-3 0  9992
2 51622  87.9090 108.2327 0002053  61.6089 298.5250 13.17647201146020
ONEWEB-0411             
1 51623U 22012B   25019.35608255 -.00000480  00000+0 -14101-2 0  9997
2 51623  87.8920 138.6384 0002228 113.3190 246.8172 13.10372337141992
ONEWEB-0415             
1 51624U 22012C   25019.35277587 -.00000588  00000+0 -17198-2 0  9996
2 51624  87.8914 138.6510 0001925 109.6056 250.5279 13.10373352141997
ONEWEB-0416             
1 51625U 22012D   25019.36439208 -.00000355  00000+0 -10539-2 0  9992
2 51625  87.8924 138.6564 0001630 105.5763 254.5545 13.10376854142037
ONEWEB-0422             
1 51626U 22012E   25019.29139874  .00000116  00000+0  26657-3 0  9993
2 51626  87.9093 108.2352 0001657 131.6654 228.4619 13.17647446146134
ONEWEB-0423             
1 51627U 22012F   25019.28465103  .00000058  00000+0  11600-3 0  9997
2 51627  87.9094 108.2407 0001637 105.5458 254.5854 13.17647540146021
ONEWEB-0425             
1 51628U 22012G   25019.37435486  .00000313  00000+0  85971-3 0  9995
2 51628  87.8920 138.6304 0001383  93.7312 266.3973 13.10378564142037
ONEWEB-0428             
1 51629U 22012H   25019.35442731 -.00000533  00000+0 -15646-2 0  9992
2 51629  87.8918 138.6531 0001680 115.0023 245.1278 13.10372762141995
ONEWEB-0431             
1 51630U 22012J   25019.32443450  .00000540  00000+0  15117-2 0  9999
2 51630  87.8909 138.6421 0002102 120.8984 239.2350 13.10370867142041
ONEWEB-0434             
1 51631U 22012K   25019.37769039  .00000460  00000+0  12825-2 0  9993
2 51631  87.8922 138.6608 0001267  81.2164 278.9107 13.10376404142037
ONEWEB-0435             
1 51632U 22012L   25019.38599355  .00000738  00000+0  20777-2 0  9990
2 51632  87.8920 138.6512 0001483 122.7784 237.3486 13.10375047142029
ONEWEB-0436             
1 51633U 22012M   25019.27621130  .00000080  00000+0  17340-3 0  9999
2 51633  87.9091 108.2375 0001845 114.4318 245.7006 13.17649392146000
ONEWEB-0438             
1 51634U 22012N   25019.36936747 -.00000391  00000+0 -11555-2 0  9991
2 51634  87.8922 138.6551 0001500  99.6264 260.5033 13.10377012142054
ONEWEB-0439             
1 51635U 22012P   25019.37270248  .00000202  00000+0  54252-3 0  9991
2 51635  87.8924 138.6411 0001541 107.4301 252.6994 13.10377490142033
ONEWEB-0442             
1 51636U 22012Q   25019.26862749  .00000043  00000+0  77033-4 0  9999
2 51636  87.9097 108.2815 0001991  85.8506 274.2853 13.17648613145999
ONEWEB-0443             
1 51637U 22012R   25019.28802855  .00000110  00000+0  24970-3 0  9990
2 51637  87.9095 108.2893 0001461  98.9147 261.2150 13.17647424146044
ONEWEB-0444             
1 51638U 22012S   25019.36273194 -.00000334  00000+0 -99222-3 0  9990
2 51638  87.8918 138.6538 0001449 111.2538 248.8744 13.10376773142045
ONEWEB-0445             
1 51639U 22012T   25019.38433838  .00000693  00000+0  19497-2 0  9997
2 51639  87.8912 138.6114 0001725 101.1159 259.0162 13.10374693142052
ONEWEB-0446             
1 51640U 22012U   25019.36107517 -.00000377  00000+0 -11153-2 0  9991
2 51640  87.8922 138.6603 0001852 103.4865 256.6469 13.10374550142031
ONEWEB-0448             
1 51641U 22012V   25019.36604534 -.00000212  00000+0 -64392-3 0  9995
2 51641  87.8923 138.6595 0001487 105.8651 254.2640 13.10374402142004
ONEWEB-0449             
1 51642U 22012W   25019.37103762  .00000040  00000+0  77517-4 0  9995
2 51642  87.8917 138.6416 0001487  95.5763 264.5534 13.10377578142013
ONEWEB-0451             
1 51643U 22012X   25019.27284092  .00000037  00000+0  63396-4 0  9997
2 51643  87.9089 108.2313 0001701  97.0735 263.0590 13.17647565145987
ONEWEB-0452             
1 51644U 22012Y   25019.27115319  .00000075  00000+0  15919-3 0  9992
2 51644  87.9095 108.2847 0001474  97.0247 263.1052 13.17647292145994
